HTV-X1                  
1 66174U 25241A   26094.21324593  .00008792  00000+0  28691-3 0  9992
2 66174  51.6358 310.0349 0007310 271.2377  88.7767 15.32530492 24850
SZ-21 MODULE            
1 66515U 25246C   26094.27025469  .00061134  00000+0  47837-3 0  9994
2 66515  41.4750  45.6530 0003225 227.1909 132.8663 15.70682632 22093
SHENZHOU-22             
1 66645U 25272A   26094.17363873  .00032464  00000+0  36374-3 0  9998
2 66645  41.4678  52.9483 0003770 120.6138 239.5073 15.61988078281157
SOYUZ-MS 28             
1 66664U 25275A   26094.06925453  .00011847  00000+0  22464-3 0  9995
2 66664  51.6326 306.8840 0006251 269.7954  90.2318 15.48758130559866
DUPLEX                  
1 66906U 98067XS  26093.87371085  .00042685  00000+0  56333-3 0  9993
2 66906  51.6281 303.3293 0003150 230.6102 129.4612 15.57944721 19053
ISS OBJECT XT           
1 66907U 98067XT  26093.79054114  .00346833  00000+0  17775-2 0  9994
2 66907  51.6221 296.7263 0007070 244.1010 115.9263 15.79721293 19135
ISS OBJECT XU           
1 66908U 98067XU  26093.78566026  .00356022  00000+0  17948-2 0  9997
2 66908  51.6220 296.6887 0007202 243.6126 116.4136 15.80057487 19139
SILVERSAT               
1 66909U 98067XV  26093.77994827  .00579654  00000+0  20456-2 0  9997
2 66909  51.6183 295.1303 0008837 251.8453 108.1590 15.87036354 19155
ISS OBJECT XW           
1 66910U 98067XW  26093.93069093  .00342281  00000+0  19076-2 0  9995
2 66910  51.6198 296.1540 0007331 240.6945 119.3324 15.77869270 19156
ISS OBJECT XX           
1 66911U 98067XX  26093.94203051  .01132347  63337-3  24721-2 0  9991
2 66911  51.6149 292.4142 0011034 258.7904 101.1865 15.97601047 19191
ISS OBJECT XY           
1 66912U 98067XY  26093.97527905  .00181383  00000+0  14911-2 0  9999
2 66912  51.6250 298.7401 0004985 238.5647 121.4863 15.69307247 19118
KNACKSAT-2              
1 67683U 98067XZ  26093.95420513  .00065956  00000+0  99573-3 0  9995
2 67683  51.6305 306.1177 0010514 279.0913  80.8888 15.54059237  8716
