CCSDS_OMM_VERS = 2.0
CREATION_DATE  = 
ORIGINATOR     = 

OBJECT_NAME    = HTV-X1
OBJECT_ID      = 2025-241A
CENTER_NAME    = EARTH
REF_FRAME      = TEME
TIME_SYSTEM    = UTC
MEAN_ELEMENT_THEORY = SGP/SGP4

EPOCH          = 2026-04-04T05:07:04.448352
MEAN_MOTION    = 15.32530492
ECCENTRICITY   = .00073109
INCLINATION    = 51.6358
RA_OF_ASC_NODE = 310.0349
ARG_OF_PERICENTER = 271.2377
MEAN_ANOMALY   = 88.7767

EPHEMERIS_TYPE = 0
CLASSIFICATION_TYPE = U
NORAD_CAT_ID   = 66174
ELEMENT_SET_NO = 999
REV_AT_EPOCH   = 2485
BSTAR          = .28690735E-3
MEAN_MOTION_DOT = .8792E-4
MEAN_MOTION_DDOT = 0

CCSDS_OMM_VERS = 2.0
CREATION_DATE  = 
ORIGINATOR     = 

OBJECT_NAME    = SZ-21 MODULE
OBJECT_ID      = 2025-246C
CENTER_NAME    = EARTH
REF_FRAME      = TEME
TIME_SYSTEM    = UTC
MEAN_ELEMENT_THEORY = SGP/SGP4

EPOCH          = 2026-04-04T06:29:10.005216
MEAN_MOTION    = 15.70682632
ECCENTRICITY   = .00032252
INCLINATION    = 41.4750
RA_OF_ASC_NODE = 45.6530
ARG_OF_PERICENTER = 227.1909
MEAN_ANOMALY   = 132.8663

EPHEMERIS_TYPE = 0
CLASSIFICATION_TYPE = U
NORAD_CAT_ID   = 66515
ELEMENT_SET_NO = 999
REV_AT_EPOCH   = 2209
BSTAR          = .47836762E-3
MEAN_MOTION_DOT = .61134E-3
MEAN_MOTION_DDOT = 0

CCSDS_OMM_VERS = 2.0
CREATION_DATE  = 
ORIGINATOR     = 

OBJECT_NAME    = SHENZHOU-22
OBJECT_ID      = 2025-272A
CENTER_NAME    = EARTH
REF_FRAME      = TEME
TIME_SYSTEM    = UTC
MEAN_ELEMENT_THEORY = SGP/SGP4

EPOCH          = 2026-04-04T04:10:02.386272
MEAN_MOTION    = 15.61988078
ECCENTRICITY   = .00037703
INCLINATION    = 41.4678
RA_OF_ASC_NODE = 52.9483
ARG_OF_PERICENTER = 120.6138
MEAN_ANOMALY   = 239.5073

EPHEMERIS_TYPE = 0
CLASSIFICATION_TYPE = U
NORAD_CAT_ID   = 66645
ELEMENT_SET_NO = 999
REV_AT_EPOCH   = 28115
BSTAR          = .36373884E-3
MEAN_MOTION_DOT = .32464E-3
MEAN_MOTION_DDOT = 0

CCSDS_OMM_VERS = 2.0
CREATION_DATE  = 
ORIGINATOR     = 

OBJECT_NAME    = SOYUZ-MS 28
OBJECT_ID      = 2025-275A
CENTER_NAME    = EARTH
REF_FRAME      = TEME
TIME_SYSTEM    = UTC
MEAN_ELEMENT_THEORY = SGP/SGP4

EPOCH          = 2026-04-04T01:39:43.591392
MEAN_MOTION    = 15.48758130
ECCENTRICITY   = .00062512
INCLINATION    = 51.6326
RA_OF_ASC_NODE = 306.8840
ARG_OF_PERICENTER = 269.7954
MEAN_ANOMALY   = 90.2318

EPHEMERIS_TYPE = 0
CLASSIFICATION_TYPE = U
NORAD_CAT_ID   = 66664
ELEMENT_SET_NO = 999
REV_AT_EPOCH   = 55986
BSTAR          = .22464475E-3
MEAN_MOTION_DOT = .11847E-3
MEAN_MOTION_DDOT = 0

CCSDS_OMM_VERS = 2.0
CREATION_DATE  = 
ORIGINATOR     = 

OBJECT_NAME    = DUPLEX
OBJECT_ID      = 1998-067XS
CENTER_NAME    = EARTH
REF_FRAME      = TEME
TIME_SYSTEM    = UTC
MEAN_ELEMENT_THEORY = SGP/SGP4

EPOCH          = 2026-04-03T20:58:08.617440
MEAN_MOTION    = 15.57944721
ECCENTRICITY   = .00031501
INCLINATION    = 51.6281
RA_OF_ASC_NODE = 303.3293
ARG_OF_PERICENTER = 230.6102
MEAN_ANOMALY   = 129.4612

EPHEMERIS_TYPE = 0
CLASSIFICATION_TYPE = U
NORAD_CAT_ID   = 66906
ELEMENT_SET_NO = 999
REV_AT_EPOCH   = 1905
BSTAR          = .56332675E-3
MEAN_MOTION_DOT = .42685E-3
MEAN_MOTION_DDOT = 0

CCSDS_OMM_VERS = 2.0
CREATION_DATE  = 
ORIGINATOR     = 

OBJECT_NAME    = ISS OBJECT XT
OBJECT_ID      = 1998-067XT
CENTER_NAME    = EARTH
REF_FRAME      = TEME
TIME_SYSTEM    = UTC
MEAN_ELEMENT_THEORY = SGP/SGP4

EPOCH          = 2026-04-03T18:58:22.754496
MEAN_MOTION    = 15.79721293
ECCENTRICITY   = .00070709
INCLINATION    = 51.6221
RA_OF_ASC_NODE = 296.7263
ARG_OF_PERICENTER = 244.1010
MEAN_ANOMALY   = 115.9263

EPHEMERIS_TYPE = 0
CLASSIFICATION_TYPE = U
NORAD_CAT_ID   = 66907
ELEMENT_SET_NO = 999
REV_AT_EPOCH   = 1913
BSTAR          = .17774925E-2
MEAN_MOTION_DOT = .346833E-2
MEAN_MOTION_DDOT = 0

CCSDS_OMM_VERS = 2.0
CREATION_DATE  = 
ORIGINATOR     = 

OBJECT_NAME    = ISS OBJECT XU
OBJECT_ID      = 1998-067XU
CENTER_NAME    = EARTH
REF_FRAME      = TEME
TIME_SYSTEM    = UTC
MEAN_ELEMENT_THEORY = SGP/SGP4

EPOCH          = 2026-04-03T18:51:21.046464
MEAN_MOTION    = 15.80057487
ECCENTRICITY   = .0007202
INCLINATION    = 51.6220
RA_OF_ASC_NODE = 296.6887
ARG_OF_PERICENTER = 243.6126
MEAN_ANOMALY   = 116.4136

EPHEMERIS_TYPE = 0
CLASSIFICATION_TYPE = U
NORAD_CAT_ID   = 66908
ELEMENT_SET_NO = 999
REV_AT_EPOCH   = 1913
BSTAR          = .17947776E-2
MEAN_MOTION_DOT = .356022E-2
MEAN_MOTION_DDOT = 0

CCSDS_OMM_VERS = 2.0
CREATION_DATE  = 
ORIGINATOR     = 

OBJECT_NAME    = SILVERSAT
OBJECT_ID      = 1998-067XV
CENTER_NAME    = EARTH
REF_FRAME      = TEME
TIME_SYSTEM    = UTC
MEAN_ELEMENT_THEORY = SGP/SGP4

EPOCH          = 2026-04-03T18:43:07.530528
MEAN_MOTION    = 15.87036354
ECCENTRICITY   = .00088371
INCLINATION    = 51.6183
RA_OF_ASC_NODE = 295.1303
ARG_OF_PERICENTER = 251.8453
MEAN_ANOMALY   = 108.1590

EPHEMERIS_TYPE = 0
CLASSIFICATION_TYPE = U
NORAD_CAT_ID   = 66909
ELEMENT_SET_NO = 999
REV_AT_EPOCH   = 1915
BSTAR          = .20455525E-2
MEAN_MOTION_DOT = .579654E-2
MEAN_MOTION_DDOT = 0

CCSDS_OMM_VERS = 2.0
CREATION_DATE  = 
ORIGINATOR     = 

OBJECT_NAME    = ISS OBJECT XW
OBJECT_ID      = 1998-067XW
CENTER_NAME    = EARTH
REF_FRAME      = TEME
TIME_SYSTEM    = UTC
MEAN_ELEMENT_THEORY = SGP/SGP4

EPOCH          = 2026-04-03T22:20:11.696352
MEAN_MOTION    = 15.77869270
ECCENTRICITY   = .00073316
INCLINATION    = 51.6198
RA_OF_ASC_NODE = 296.1540
ARG_OF_PERICENTER = 240.6945
MEAN_ANOMALY   = 119.3324

EPHEMERIS_TYPE = 0
CLASSIFICATION_TYPE = U
NORAD_CAT_ID   = 66910
ELEMENT_SET_NO = 999
REV_AT_EPOCH   = 1915
BSTAR          = .19076387E-2
MEAN_MOTION_DOT = .342281E-2
MEAN_MOTION_DDOT = 0

CCSDS_OMM_VERS = 2.0
CREATION_DATE  = 
ORIGINATOR     = 

OBJECT_NAME    = ISS OBJECT XX
OBJECT_ID      = 1998-067XX
CENTER_NAME    = EARTH
REF_FRAME      = TEME
TIME_SYSTEM    = UTC
MEAN_ELEMENT_THEORY = SGP/SGP4

EPOCH          = 2026-04-03T22:36:31.436064
MEAN_MOTION    = 15.97601047
ECCENTRICITY   = .00110343
INCLINATION    = 51.6149
RA_OF_ASC_NODE = 292.4142
ARG_OF_PERICENTER = 258.7904
MEAN_ANOMALY   = 101.1865

EPHEMERIS_TYPE = 0
CLASSIFICATION_TYPE = U
NORAD_CAT_ID   = 66911
ELEMENT_SET_NO = 999
REV_AT_EPOCH   = 1919
BSTAR          = .2472123E-2
MEAN_MOTION_DOT = .1132347E-1
MEAN_MOTION_DDOT = .63337235E-3

CCSDS_OMM_VERS = 2.0
CREATION_DATE  = 
ORIGINATOR     = 

OBJECT_NAME    = ISS OBJECT XY
OBJECT_ID      = 1998-067XY
CENTER_NAME    = EARTH
REF_FRAME      = TEME
TIME_SYSTEM    = UTC
MEAN_ELEMENT_THEORY = SGP/SGP4

EPOCH          = 2026-04-03T23:24:24.109920
MEAN_MOTION    = 15.69307247
ECCENTRICITY   = .0004985
INCLINATION    = 51.6250
RA_OF_ASC_NODE = 298.7401
ARG_OF_PERICENTER = 238.5647
MEAN_ANOMALY   = 121.4863

EPHEMERIS_TYPE = 0
CLASSIFICATION_TYPE = U
NORAD_CAT_ID   = 66912
ELEMENT_SET_NO = 999
REV_AT_EPOCH   = 1911
BSTAR          = .14911408E-2
MEAN_MOTION_DOT = .181383E-2
MEAN_MOTION_DDOT = 0

CCSDS_OMM_VERS = 2.0
CREATION_DATE  = 
ORIGINATOR     = 

OBJECT_NAME    = KNACKSAT-2
OBJECT_ID      = 1998-067XZ
CENTER_NAME    = EARTH
REF_FRAME      = TEME
TIME_SYSTEM    = UTC
MEAN_ELEMENT_THEORY = SGP/SGP4

EPOCH          = 2026-04-03T22:54:03.323232
MEAN_MOTION    = 15.54059237
ECCENTRICITY   = .00105141
INCLINATION    = 51.6305
RA_OF_ASC_NODE = 306.1177
ARG_OF_PERICENTER = 279.0913
MEAN_ANOMALY   = 80.8888

EPHEMERIS_TYPE = 0
CLASSIFICATION_TYPE = U
NORAD_CAT_ID   = 67683
ELEMENT_SET_NO = 999
REV_AT_EPOCH   = 871
BSTAR          = .99572606E-3
MEAN_MOTION_DOT = .65956E-3
MEAN_MOTION_DDOT = 0

